{"type": "FeatureCollection", "features": [{"type": "Feature", "geometry": {"type": "Point", "coordinates": [-71.108166, 41.741375]}, "properties": {"addr:housenumber": "575", "addr:street": "Currant Road", "addr:city": "Fall River", "addr:state": "MA", "addr:postcode": "02720", "addr:country": "US", "network:phone": "+1-888-758-4389", "opening_hours": "24/7", "network": "ChargePoint", "network:website": "https://www.chargepoint.com", "check_date": "2025-06-29", "ref:afdc": "400568", "start_date": "2025-06-24", "socket:type1_combo": 1, "socket:type1_combo:output": "62", "socket:chademo": 1, "socket:chademo:output": "62", "man_made": "charge_point", "frequency": 0, "access": "yes"}}, {"type": "Feature", "geometry": {"type": "Point", "coordinates": [-71.108091, 41.741343]}, "properties": {"addr:housenumber": "575", "addr:street": "Currant Road", "addr:city": "Fall River", "addr:state": "MA", "addr:postcode": "02720", "addr:country": "US", "network:phone": "+1-888-758-4389", "opening_hours": "24/7", "network": "ChargePoint", "network:website": "https://www.chargepoint.com", "check_date": "2025-06-29", "ref:afdc": "400569", "start_date": "2025-06-24", "socket:type1_combo": 1, "socket:type1_combo:output": "62", "socket:chademo": 1, "socket:chademo:output": "62", "man_made": "charge_point", "frequency": 0, "access": "yes"}}, {"type": "Feature", "geometry": {"type": "Point", "coordinates": [-80.191125, 26.455812]}, "properties": {"addr:housenumber": "14851", "addr:street": "Lyons Road", "addr:city": "Delray Beach", "addr:state": "FL", "addr:postcode": "33446", "addr:country": "US", "network:phone": "+1-888-758-4389", "opening_hours": "24/7", "network": "ChargePoint", "network:website": "https://www.chargepoint.com", "check_date": "2025-06-29", "ref:afdc": "400599", "start_date": "2025-06-24", "socket:type1_combo": 1, "socket:type1_combo:output": "400", "man_made": "charge_point", "frequency": 0, "access": "yes"}}, {"type": "Feature", "geometry": {"type": "Point", "coordinates": [-80.191125, 26.455812]}, "properties": {"addr:housenumber": "14851", "addr:street": "Lyons Road", "addr:city": "Delray Beach", "addr:state": "FL", "addr:postcode": "33446", "addr:country": "US", "network:phone": "+1-888-758-4389", "opening_hours": "24/7", "network": "ChargePoint", "network:website": "https://www.chargepoint.com", "check_date": "2025-06-29", "ref:afdc": "400599", "start_date": "2025-06-24", "socket:type1_combo": 1, "socket:type1_combo:output": "400", "man_made": "charge_point", "frequency": 0, "access": "yes"}}, {"type": "Feature", "geometry": {"type": "Point", "coordinates": [-80.191062, 26.455803]}, "properties": {"addr:housenumber": "14851", "addr:street": "Lyons Road", "addr:city": "Delray Beach", "addr:state": "FL", "addr:postcode": "33446", "addr:country": "US", "network:phone": "+1-888-758-4389", "opening_hours": "24/7", "network": "ChargePoint", "network:website": "https://www.chargepoint.com", "check_date": "2025-06-29", "ref:afdc": "400600", "start_date": "2025-06-24", "socket:type1_combo": 1, "socket:type1_combo:output": "400", "man_made": "charge_point", "frequency": 0, "access": "yes"}}, {"type": "Feature", "geometry": {"type": "Point", "coordinates": [-80.191062, 26.455803]}, "properties": {"addr:housenumber": "14851", "addr:street": "Lyons Road", "addr:city": "Delray Beach", "addr:state": "FL", "addr:postcode": "33446", "addr:country": "US", "network:phone": "+1-888-758-4389", "opening_hours": "24/7", "network": "ChargePoint", "network:website": "https://www.chargepoint.com", "check_date": "2025-06-29", "ref:afdc": "400600", "start_date": "2025-06-24", "socket:type1_combo": 1, "socket:type1_combo:output": "400", "man_made": "charge_point", "frequency": 0, "access": "yes"}}, {"type": "Feature", "geometry": {"type": "Point", "coordinates": [-80.190771, 26.455804]}, "properties": {"addr:housenumber": "14851", "addr:street": "Lyons Road", "addr:city": "Delray Beach", "addr:state": "FL", "addr:postcode": "33446", "addr:country": "US", "network:phone": "+1-888-758-4389", "opening_hours": "24/7", "network": "ChargePoint", "network:website": "https://www.chargepoint.com", "check_date": "2025-06-29", "ref:afdc": "400601", "start_date": "2025-06-24", "socket:type1_combo": 1, "socket:type1_combo:output": "400", "man_made": "charge_point", "frequency": 0, "access": "yes"}}, {"type": "Feature", "geometry": {"type": "Point", "coordinates": [-80.190771, 26.455804]}, "properties": {"addr:housenumber": "14851", "addr:street": "Lyons Road", "addr:city": "Delray Beach", "addr:state": "FL", "addr:postcode": "33446", "addr:country": "US", "network:phone": "+1-888-758-4389", "opening_hours": "24/7", "network": "ChargePoint", "network:website": "https://www.chargepoint.com", "check_date": "2025-06-29", "ref:afdc": "400601", "start_date": "2025-06-24", "socket:type1_combo": 1, "socket:type1_combo:output": "400", "man_made": "charge_point", "frequency": 0, "access": "yes"}}, {"type": "Feature", "geometry": {"type": "Point", "coordinates": [-80.190968, 26.455803]}, "properties": {"addr:housenumber": "14851", "addr:street": "Lyons Road", "addr:city": "Delray Beach", "addr:state": "FL", "addr:postcode": "33446", "addr:country": "US", "network:phone": "+1-888-758-4389", "opening_hours": "24/7", "network": "ChargePoint", "network:website": "https://www.chargepoint.com", "check_date": "2025-06-29", "ref:afdc": "400603", "start_date": "2025-06-24", "socket:type1_combo": 1, "socket:type1_combo:output": "400", "man_made": "charge_point", "frequency": 0, "access": "yes"}}, {"type": "Feature", "geometry": {"type": "Point", "coordinates": [-80.190968, 26.455803]}, "properties": {"addr:housenumber": "14851", "addr:street": "Lyons Road", "addr:city": "Delray Beach", "addr:state": "FL", "addr:postcode": "33446", "addr:country": "US", "network:phone": "+1-888-758-4389", "opening_hours": "24/7", "network": "ChargePoint", "network:website": "https://www.chargepoint.com", "check_date": "2025-06-29", "ref:afdc": "400603", "start_date": "2025-06-24", "socket:type1_combo": 1, "socket:type1_combo:output": "400", "man_made": "charge_point", "frequency": 0, "access": "yes"}}, {"type": "Feature", "geometry": {"type": "Point", "coordinates": [-95.000327, 29.801246]}, "properties": {"addr:housenumber": "4080", "addr:street": "East Freeway", "addr:city": "Baytown", "addr:state": "TX", "addr:postcode": "77521", "addr:country": "US", "network:phone": "+1-888-758-4389", "opening_hours": "24/7", "network": "ChargePoint", "network:website": "https://www.chargepoint.com", "check_date": "2025-06-29", "ref:afdc": "400662", "start_date": "2025-06-25", "socket:type1_combo": 1, "socket:type1_combo:output": "400", "man_made": "charge_point", "frequency": 0, "access": "yes"}}, {"type": "Feature", "geometry": {"type": "Point", "coordinates": [-76.39857, 37.06339]}, "properties": {"addr:housenumber": "2712", "addr:street": "Neil Armstrong Parkway", "addr:city": "Hampton", "addr:state": "VA", "addr:postcode": "23666", "addr:country": "US", "network:phone": "+1-888-758-4389", "opening_hours": "24/7", "network": "ChargePoint", "network:website": "https://www.chargepoint.com", "check_date": "2025-06-29", "ref:afdc": "400663", "start_date": "2025-06-25", "socket:type1_combo": 1, "socket:type1_combo:output": "62", "socket:chademo": 1, "socket:chademo:output": "62", "man_made": "charge_point", "frequency": 0, "access": "yes"}}, {"type": "Feature", "geometry": {"type": "Point", "coordinates": [-76.39847, 37.062946]}, "properties": {"addr:housenumber": "2712", "addr:street": "Neil Armstrong Parkway", "addr:city": "Hampton", "addr:state": "VA", "addr:postcode": "23666", "addr:country": "US", "network:phone": "+1-888-758-4389", "opening_hours": "24/7", "network": "ChargePoint", "network:website": "https://www.chargepoint.com", "check_date": "2025-06-29", "ref:afdc": "400664", "start_date": "2025-06-25", "socket:type1_combo": 1, "socket:type1_combo:output": "62", "socket:chademo": 1, "socket:chademo:output": "62", "man_made": "charge_point", "frequency": 0, "access": "yes"}}, {"type": "Feature", "geometry": {"type": "Point", "coordinates": [-85.34751, 32.643738]}, "properties": {"addr:housenumber": "1400", "addr:street": "Columbus Parkway", "addr:city": "Opelika", "addr:state": "AL", "addr:postcode": "36804", "addr:country": "US", "network:phone": "+1-888-758-4389", "opening_hours": "24/7", "network": "ChargePoint", "network:website": "https://www.chargepoint.com", "check_date": "2025-06-29", "ref:afdc": "404625", "start_date": "2025-06-27", "socket:type1_combo": 1, "socket:type1_combo:output": "80", "socket:nacs": 1, "socket:nacs:output": "80", "man_made": "charge_point", "frequency": 0, "access": "yes"}}, {"type": "Feature", "geometry": {"type": "Point", "coordinates": [-85.347524, 32.643761]}, "properties": {"addr:housenumber": "1400", "addr:street": "Columbus Parkway", "addr:city": "Opelika", "addr:state": "AL", "addr:postcode": "36804", "addr:country": "US", "network:phone": "+1-888-758-4389", "opening_hours": "24/7", "network": "ChargePoint", "network:website": "https://www.chargepoint.com", "check_date": "2025-06-29", "ref:afdc": "404626", "start_date": "2025-06-27", "socket:type1_combo": 1, "socket:type1_combo:output": "80", "socket:nacs": 1, "socket:nacs:output": "80", "man_made": "charge_point", "frequency": 0, "access": "yes"}}, {"type": "Feature", "geometry": {"type": "Point", "coordinates": [-85.347504, 32.64379]}, "properties": {"addr:housenumber": "1400", "addr:street": "Columbus Parkway", "addr:city": "Opelika", "addr:state": "AL", "addr:postcode": "36804", "addr:country": "US", "network:phone": "+1-888-758-4389", "opening_hours": "24/7", "network": "ChargePoint", "network:website": "https://www.chargepoint.com", "check_date": "2025-06-29", "ref:afdc": "404627", "start_date": "2025-06-27", "socket:type1_combo": 1, "socket:type1_combo:output": "80", "socket:nacs": 1, "socket:nacs:output": "80", "man_made": "charge_point", "frequency": 0, "access": "yes"}}, {"type": "Feature", "geometry": {"type": "Point", "coordinates": [-85.347494, 32.643833]}, "properties": {"addr:housenumber": "1400", "addr:street": "Columbus Parkway", "addr:city": "Opelika", "addr:state": "AL", "addr:postcode": "36804", "addr:country": "US", "network:phone": "+1-888-758-4389", "opening_hours": "24/7", "network": "ChargePoint", "network:website": "https://www.chargepoint.com", "check_date": "2025-06-29", "ref:afdc": "404628", "start_date": "2025-06-27", "socket:type1_combo": 1, "socket:type1_combo:output": "80", "socket:chademo": 1, "socket:chademo:output": "80", "man_made": "charge_point", "frequency": 0, "access": "yes"}}, {"type": "Feature", "geometry": {"type": "Point", "coordinates": [-95.00029, 29.801245]}, "properties": {"addr:housenumber": "4080", "addr:street": "East Freeway", "addr:city": "Baytown", "addr:state": "TX", "addr:postcode": "77521", "addr:country": "US", "network:phone": "+1-888-758-4389", "opening_hours": "24/7", "network": "ChargePoint", "network:website": "https://www.chargepoint.com", "check_date": "2025-06-29", "ref:afdc": "404636", "start_date": "2025-06-27", "socket:type1_combo": 1, "socket:type1_combo:output": "400", "man_made": "charge_point", "frequency": 0, "access": "yes"}}, {"type": "Feature", "geometry": {"type": "Point", "coordinates": [-95.00029, 29.801245]}, "properties": {"addr:housenumber": "4080", "addr:street": "East Freeway", "addr:city": "Baytown", "addr:state": "TX", "addr:postcode": "77521", "addr:country": "US", "network:phone": "+1-888-758-4389", "opening_hours": "24/7", "network": "ChargePoint", "network:website": "https://www.chargepoint.com", "check_date": "2025-06-29", "ref:afdc": "404636", "start_date": "2025-06-27", "socket:nacs": 1, "socket:nacs:output": "400", "man_made": "charge_point", "frequency": 0, "access": "yes"}}, {"type": "Feature", "geometry": {"type": "Point", "coordinates": [-95.000108, 29.801272]}, "properties": {"addr:housenumber": "4080", "addr:street": "East Freeway", "addr:city": "Baytown", "addr:state": "TX", "addr:postcode": "77521", "addr:country": "US", "network:phone": "+1-888-758-4389", "opening_hours": "24/7", "network": "ChargePoint", "network:website": "https://www.chargepoint.com", "check_date": "2025-06-29", "ref:afdc": "404637", "start_date": "2025-06-27", "socket:type1_combo": 1, "socket:type1_combo:output": "400", "man_made": "charge_point", "frequency": 0, "access": "yes"}}, {"type": "Feature", "geometry": {"type": "Point", "coordinates": [-95.000108, 29.801272]}, "properties": {"addr:housenumber": "4080", "addr:street": "East Freeway", "addr:city": "Baytown", "addr:state": "TX", "addr:postcode": "77521", "addr:country": "US", "network:phone": "+1-888-758-4389", "opening_hours": "24/7", "network": "ChargePoint", "network:website": "https://www.chargepoint.com", "check_date": "2025-06-29", "ref:afdc": "404637", "start_date": "2025-06-27", "socket:nacs": 1, "socket:nacs:output": "400", "man_made": "charge_point", "frequency": 0, "access": "yes"}}, {"type": "Feature", "geometry": {"type": "Point", "coordinates": [-95.000066, 29.801277]}, "properties": {"addr:housenumber": "4080", "addr:street": "East Freeway", "addr:city": "Baytown", "addr:state": "TX", "addr:postcode": "77521", "addr:country": "US", "network:phone": "+1-888-758-4389", "opening_hours": "24/7", "network": "ChargePoint", "network:website": "https://www.chargepoint.com", "check_date": "2025-06-29", "ref:afdc": "404638", "start_date": "2025-06-27", "socket:type1_combo": 1, "socket:type1_combo:output": "400", "man_made": "charge_point", "frequency": 0, "access": "yes"}}, {"type": "Feature", "geometry": {"type": "Point", "coordinates": [-95.000066, 29.801277]}, "properties": {"addr:housenumber": "4080", "addr:street": "East Freeway", "addr:city": "Baytown", "addr:state": "TX", "addr:postcode": "77521", "addr:country": "US", "network:phone": "+1-888-758-4389", "opening_hours": "24/7", "network": "ChargePoint", "network:website": "https://www.chargepoint.com", "check_date": "2025-06-29", "ref:afdc": "404638", "start_date": "2025-06-27", "socket:nacs": 1, "socket:nacs:output": "400", "man_made": "charge_point", "frequency": 0, "access": "yes"}}, {"type": "Feature", "geometry": {"type": "Point", "coordinates": [-83.403926, 33.945861]}, "properties": {"addr:housenumber": "2025", "addr:street": "Baxter Street", "addr:city": "Athens", "addr:state": "GA", "addr:postcode": "30606", "addr:country": "US", "network:phone": "+1-888-758-4389", "opening_hours": "24/7", "network": "ChargePoint", "network:website": "https://www.chargepoint.com", "check_date": "2025-06-29", "ref:afdc": "404639", "start_date": "2025-06-27", "socket:type1_combo": 1, "socket:type1_combo:output": "62", "socket:chademo": 1, "socket:chademo:output": "62", "man_made": "charge_point", "frequency": 0, "access": "yes"}}, {"type": "Feature", "geometry": {"type": "Point", "coordinates": [-92.50278, 44.072567]}, "properties": {"addr:housenumber": "4800", "addr:street": "US-52", "addr:city": "Rochester", "addr:state": "MN", "addr:postcode": "55901", "addr:country": "US", "network:phone": "+1-888-758-4389", "opening_hours": "24/7", "network": "ChargePoint", "network:website": "https://www.chargepoint.com", "check_date": "2025-06-29", "ref:afdc": "404640", "start_date": "2025-06-27", "socket:type1_combo": 1, "socket:type1_combo:output": "62", "socket:chademo": 1, "socket:chademo:output": "62", "man_made": "charge_point", "frequency": 0, "access": "yes"}}, {"type": "Feature", "geometry": {"type": "Point", "coordinates": [-95.000231, 29.801257]}, "properties": {"addr:housenumber": "4080", "addr:street": "East Freeway", "addr:city": "Baytown", "addr:state": "TX", "addr:postcode": "77521", "addr:country": "US", "network:phone": "+1-888-758-4389", "opening_hours": "24/7", "network": "ChargePoint", "network:website": "https://www.chargepoint.com", "check_date": "2025-06-29", "ref:afdc": "404641", "start_date": "2025-06-27", "socket:type1_combo": 1, "socket:type1_combo:output": "400", "man_made": "charge_point", "frequency": 0, "access": "yes"}}, {"type": "Feature", "geometry": {"type": "Point", "coordinates": [-95.000231, 29.801257]}, "properties": {"addr:housenumber": "4080", "addr:street": "East Freeway", "addr:city": "Baytown", "addr:state": "TX", "addr:postcode": "77521", "addr:country": "US", "network:phone": "+1-888-758-4389", "opening_hours": "24/7", "network": "ChargePoint", "network:website": "https://www.chargepoint.com", "check_date": "2025-06-29", "ref:afdc": "404641", "start_date": "2025-06-27", "socket:nacs": 1, "socket:nacs:output": "400", "man_made": "charge_point", "frequency": 0, "access": "yes"}}, {"type": "Feature", "geometry": {"type": "Point", "coordinates": [-83.403133, 33.945542]}, "properties": {"addr:housenumber": "2025", "addr:street": "Baxter Street", "addr:city": "Athens", "addr:state": "GA", "addr:postcode": "30606", "addr:country": "US", "network:phone": "+1-888-758-4389", "opening_hours": "24/7", "network": "ChargePoint", "network:website": "https://www.chargepoint.com", "check_date": "2025-06-29", "ref:afdc": "404642", "start_date": "2025-06-27", "socket:type1_combo": 1, "socket:type1_combo:output": "62", "socket:chademo": 1, "socket:chademo:output": "62", "man_made": "charge_point", "frequency": 0, "access": "yes"}}, {"type": "Feature", "geometry": {"type": "Point", "coordinates": [-95.000171, 29.801263]}, "properties": {"addr:housenumber": "4080", "addr:street": "East Freeway", "addr:city": "Baytown", "addr:state": "TX", "addr:postcode": "77521", "addr:country": "US", "network:phone": "+1-888-758-4389", "opening_hours": "24/7", "network": "ChargePoint", "network:website": "https://www.chargepoint.com", "check_date": "2025-06-29", "ref:afdc": "404643", "start_date": "2025-06-27", "socket:type1_combo": 1, "socket:type1_combo:output": "400", "man_made": "charge_point", "frequency": 0, "access": "yes"}}, {"type": "Feature", "geometry": {"type": "Point", "coordinates": [-95.000171, 29.801263]}, "properties": {"addr:housenumber": "4080", "addr:street": "East Freeway", "addr:city": "Baytown", "addr:state": "TX", "addr:postcode": "77521", "addr:country": "US", "network:phone": "+1-888-758-4389", "opening_hours": "24/7", "network": "ChargePoint", "network:website": "https://www.chargepoint.com", "check_date": "2025-06-29", "ref:afdc": "404643", "start_date": "2025-06-27", "socket:nacs": 1, "socket:nacs:output": "400", "man_made": "charge_point", "frequency": 0, "access": "yes"}}, {"type": "Feature", "geometry": {"type": "Point", "coordinates": [-117.20226, 34.069749]}, "properties": {"addr:housenumber": "1301", "addr:street": "West Lugonia Avenue", "addr:city": "Redlands", "addr:state": "CA", "addr:postcode": "92374", "addr:country": "US", "network:phone": "+1-888-758-4389", "opening_hours": "24/7", "network": "ChargePoint", "network:website": "https://www.chargepoint.com", "check_date": "2025-06-29", "ref:afdc": "404645", "start_date": "2025-06-27", "socket:type1_combo": 1, "socket:type1_combo:output": "62", "socket:nacs": 1, "socket:nacs:output": "62", "man_made": "charge_point", "frequency": 0, "access": "yes"}}, {"type": "Feature", "geometry": {"type": "Point", "coordinates": [-117.202709, 34.06963]}, "properties": {"addr:housenumber": "1301", "addr:street": "West Lugonia Avenue", "addr:city": "Redlands", "addr:state": "CA", "addr:postcode": "92374", "addr:country": "US", "network:phone": "+1-888-758-4389", "opening_hours": "24/7", "network": "ChargePoint", "network:website": "https://www.chargepoint.com", "check_date": "2025-06-29", "ref:afdc": "404646", "start_date": "2025-06-27", "socket:type1_combo": 1, "socket:type1_combo:output": "125", "socket:nacs": 1, "socket:nacs:output": "125", "man_made": "charge_point", "frequency": 0, "access": "yes"}}, {"type": "Feature", "geometry": {"type": "Point", "coordinates": [-117.202571, 34.069631]}, "properties": {"addr:housenumber": "1301", "addr:street": "West Lugonia Avenue", "addr:city": "Redlands", "addr:state": "CA", "addr:postcode": "92374", "addr:country": "US", "network:phone": "+1-888-758-4389", "opening_hours": "24/7", "network": "ChargePoint", "network:website": "https://www.chargepoint.com", "check_date": "2025-06-29", "ref:afdc": "404647", "start_date": "2025-06-27", "socket:type1_combo": 1, "socket:type1_combo:output": "125", "socket:nacs": 1, "socket:nacs:output": "125", "man_made": "charge_point", "frequency": 0, "access": "yes"}}, {"type": "Feature", "geometry": {"type": "Point", "coordinates": [-117.202482, 34.069644]}, "properties": {"addr:housenumber": "1301", "addr:street": "West Lugonia Avenue", "addr:city": "Redlands", "addr:state": "CA", "addr:postcode": "92374", "addr:country": "US", "network:phone": "+1-888-758-4389", "opening_hours": "24/7", "network": "ChargePoint", "network:website": "https://www.chargepoint.com", "check_date": "2025-06-29", "ref:afdc": "404648", "start_date": "2025-06-27", "socket:type1_combo": 1, "socket:type1_combo:output": "125", "socket:nacs": 1, "socket:nacs:output": "125", "man_made": "charge_point", "frequency": 0, "access": "yes"}}, {"type": "Feature", "geometry": {"type": "Point", "coordinates": [-117.202457, 34.069722]}, "properties": {"addr:housenumber": "1301", "addr:street": "West Lugonia Avenue", "addr:city": "Redlands", "addr:state": "CA", "addr:postcode": "92374", "addr:country": "US", "network:phone": "+1-888-758-4389", "opening_hours": "24/7", "network": "ChargePoint", "network:website": "https://www.chargepoint.com", "check_date": "2025-06-29", "ref:afdc": "404649", "start_date": "2025-06-27", "socket:type1_combo": 1, "socket:type1_combo:output": "62", "socket:nacs": 1, "socket:nacs:output": "62", "man_made": "charge_point", "frequency": 0, "access": "yes"}}, {"type": "Feature", "geometry": {"type": "Point", "coordinates": [-117.202438, 34.0698]}, "properties": {"addr:housenumber": "1301", "addr:street": "West Lugonia Avenue", "addr:city": "Redlands", "addr:state": "CA", "addr:postcode": "92374", "addr:country": "US", "network:phone": "+1-888-758-4389", "opening_hours": "24/7", "network": "ChargePoint", "network:website": "https://www.chargepoint.com", "check_date": "2025-06-29", "ref:afdc": "404650", "start_date": "2025-06-27", "socket:type1_combo": 1, "socket:type1_combo:output": "62", "socket:nacs": 1, "socket:nacs:output": "62", "man_made": "charge_point", "frequency": 0, "access": "yes"}}, {"type": "Feature", "geometry": {"type": "Point", "coordinates": [-82.942249, 38.340795]}, "properties": {"addr:housenumber": "750", "addr:street": "Carol Malone Boulevard", "addr:city": "Grayson", "addr:state": "KY", "addr:postcode": "41143", "addr:country": "US", "network:phone": "+1-888-758-4389", "opening_hours": "24/7", "network": "ChargePoint", "network:website": "https://www.chargepoint.com", "check_date": "2025-06-29", "ref:afdc": "404657", "start_date": "2025-06-27", "socket:type1_combo": 1, "socket:type1_combo:output": "320", "socket:nacs": 1, "socket:nacs:output": "320", "man_made": "charge_point", "frequency": 0, "access": "yes"}}, {"type": "Feature", "geometry": {"type": "Point", "coordinates": [-82.942249, 38.340795]}, "properties": {"addr:housenumber": "750", "addr:street": "Carol Malone Boulevard", "addr:city": "Grayson", "addr:state": "KY", "addr:postcode": "41143", "addr:country": "US", "network:phone": "+1-888-758-4389", "opening_hours": "24/7", "network": "ChargePoint", "network:website": "https://www.chargepoint.com", "check_date": "2025-06-29", "ref:afdc": "404657", "start_date": "2025-06-27", "socket:type1_combo": 1, "socket:type1_combo:output": "320", "socket:nacs": 1, "socket:nacs:output": "320", "man_made": "charge_point", "frequency": 0, "access": "yes"}}, {"type": "Feature", "geometry": {"type": "Point", "coordinates": [-82.942325, 38.34077]}, "properties": {"addr:housenumber": "750", "addr:street": "Carol Malone Boulevard", "addr:city": "Grayson", "addr:state": "KY", "addr:postcode": "41143", "addr:country": "US", "network:phone": "+1-888-758-4389", "opening_hours": "24/7", "network": "ChargePoint", "network:website": "https://www.chargepoint.com", "check_date": "2025-06-29", "ref:afdc": "404659", "start_date": "2025-06-27", "socket:type1_combo": 1, "socket:type1_combo:output": "320", "socket:nacs": 1, "socket:nacs:output": "320", "man_made": "charge_point", "frequency": 0, "access": "yes"}}, {"type": "Feature", "geometry": {"type": "Point", "coordinates": [-82.942325, 38.34077]}, "properties": {"addr:housenumber": "750", "addr:street": "Carol Malone Boulevard", "addr:city": "Grayson", "addr:state": "KY", "addr:postcode": "41143", "addr:country": "US", "network:phone": "+1-888-758-4389", "opening_hours": "24/7", "network": "ChargePoint", "network:website": "https://www.chargepoint.com", "check_date": "2025-06-29", "ref:afdc": "404659", "start_date": "2025-06-27", "socket:type1_combo": 1, "socket:type1_combo:output": "320", "socket:nacs": 1, "socket:nacs:output": "320", "man_made": "charge_point", "frequency": 0, "access": "yes"}}, {"type": "Feature", "geometry": {"type": "Point", "coordinates": [-71.997324, 42.562709]}, "properties": {"addr:housenumber": "442", "addr:street": "West Broadway", "addr:city": "Gardner", "addr:state": "MA", "addr:postcode": "01440", "addr:country": "US", "network:phone": "+1-888-758-4389", "opening_hours": "24/7", "network": "ChargePoint", "network:website": "https://www.chargepoint.com", "check_date": "2025-06-29", "ref:afdc": "404713", "start_date": "2025-06-28", "socket:type1_combo": 1, "socket:type1_combo:output": "360", "man_made": "charge_point", "frequency": 0, "access": "yes"}}, {"type": "Feature", "geometry": {"type": "Point", "coordinates": [-71.997324, 42.562709]}, "properties": {"addr:housenumber": "442", "addr:street": "West Broadway", "addr:city": "Gardner", "addr:state": "MA", "addr:postcode": "01440", "addr:country": "US", "network:phone": "+1-888-758-4389", "opening_hours": "24/7", "network": "ChargePoint", "network:website": "https://www.chargepoint.com", "check_date": "2025-06-29", "ref:afdc": "404713", "start_date": "2025-06-28", "socket:type1_combo": 1, "socket:type1_combo:output": "360", "man_made": "charge_point", "frequency": 0, "access": "yes"}}, {"type": "Feature", "geometry": {"type": "Point", "coordinates": [-71.997423, 42.562576]}, "properties": {"addr:housenumber": "442", "addr:street": "West Broadway", "addr:city": "Gardner", "addr:state": "MA", "addr:postcode": "01440", "addr:country": "US", "network:phone": "+1-888-758-4389", "opening_hours": "24/7", "network": "ChargePoint", "network:website": "https://www.chargepoint.com", "check_date": "2025-06-29", "ref:afdc": "404714", "start_date": "2025-06-28", "socket:type1_combo": 1, "socket:type1_combo:output": "400", "man_made": "charge_point", "frequency": 0, "access": "yes"}}, {"type": "Feature", "geometry": {"type": "Point", "coordinates": [-71.997423, 42.562576]}, "properties": {"addr:housenumber": "442", "addr:street": "West Broadway", "addr:city": "Gardner", "addr:state": "MA", "addr:postcode": "01440", "addr:country": "US", "network:phone": "+1-888-758-4389", "opening_hours": "24/7", "network": "ChargePoint", "network:website": "https://www.chargepoint.com", "check_date": "2025-06-29", "ref:afdc": "404714", "start_date": "2025-06-28", "socket:type1_combo": 1, "socket:type1_combo:output": "400", "man_made": "charge_point", "frequency": 0, "access": "yes"}}, {"type": "Feature", "geometry": {"type": "Point", "coordinates": [-92.502583, 44.072521]}, "properties": {"addr:housenumber": "4800", "addr:street": "US-52", "addr:city": "Rochester", "addr:state": "MN", "addr:postcode": "55901", "addr:country": "US", "network:phone": "+1-888-758-4389", "opening_hours": "24/7", "network": "ChargePoint", "network:website": "https://www.chargepoint.com", "check_date": "2025-06-29", "ref:afdc": "404723", "start_date": "2025-06-28", "socket:type1_combo": 1, "socket:type1_combo:output": "200", "man_made": "charge_point", "frequency": 0, "access": "yes"}}, {"type": "Feature", "geometry": {"type": "Point", "coordinates": [-92.502583, 44.072521]}, "properties": {"addr:housenumber": "4800", "addr:street": "US-52", "addr:city": "Rochester", "addr:state": "MN", "addr:postcode": "55901", "addr:country": "US", "network:phone": "+1-888-758-4389", "opening_hours": "24/7", "network": "ChargePoint", "network:website": "https://www.chargepoint.com", "check_date": "2025-06-29", "ref:afdc": "404723", "start_date": "2025-06-28", "socket:type1_combo": 1, "socket:type1_combo:output": "200", "man_made": "charge_point", "frequency": 0, "access": "yes"}}, {"type": "Feature", "geometry": {"type": "Point", "coordinates": [-87.384149, 46.581636]}, "properties": {"addr:housenumber": "1", "addr:street": "Peter White Drive", "addr:city": "Marquette", "addr:state": "MI", "addr:postcode": "49855", "addr:country": "US", "network:phone": "+1-888-758-4389", "opening_hours": "24/7", "network": "ChargePoint", "network:website": "https://www.chargepoint.com", "check_date": "2025-06-29", "ref:afdc": "404656", "start_date": "2025-06-27", "socket:type1_combo": 1, "socket:type1_combo:output": "62", "socket:chademo": 1, "socket:chademo:output": "62", "amenity": "charging_station"}}, {"type": "Feature", "geometry": {"type": "Point", "coordinates": [-89.13613, 38.97118]}, "properties": {"addr:housenumber": "10", "addr:street": "Interstate Drive", "addr:city": "Vandalia", "addr:state": "IL", "addr:postcode": "62471", "addr:country": "US", "network:phone": "+1-877-455-3833", "opening_hours": "24/7", "network": "EVgo", "network:website": "https://www.evgo.com", "check_date": "2025-06-29", "ref:afdc": "400686", "start_date": "2025-06-25", "socket:type1_combo": 4, "socket:type1_combo:output": "350", "amenity": "charging_station"}}, {"type": "Feature", "geometry": {"type": "Point", "coordinates": [-84.767197, 43.60537]}, "properties": {"addr:housenumber": "116", "addr:street": "North Mission Street", "addr:city": "Mt Pleasant", "addr:state": "MI", "addr:postcode": "48858", "addr:country": "US", "network:phone": "+1-313-262-6722", "opening_hours": "24/7", "network": "Red E", "network:website": "https://www.redecharge.com", "check_date": "2025-06-29", "ref:afdc": "400216", "start_date": "2025-06-23", "socket:type1_combo": 1, "socket:type1_combo:output": "50", "socket:chademo": 1, "socket:chademo:output": "49", "amenity": "charging_station"}}, {"type": "Feature", "geometry": {"type": "Point", "coordinates": [-117.202486, 34.069696]}, "properties": {"addr:housenumber": "1301", "addr:street": "West Lugonia Avenue", "addr:city": "Redlands", "addr:state": "CA", "addr:postcode": "92374", "addr:country": "US", "network:phone": "+1-888-758-4389", "opening_hours": "24/7", "network": "ChargePoint", "network:website": "https://www.chargepoint.com", "check_date": "2025-06-29", "ref:afdc": "404645;404646;404647;404648;404649;404650", "start_date": "2025-06-27", "socket:type1_combo": 6, "socket:type1_combo:output": "125;62", "socket:nacs": 6, "socket:nacs:output": "125;62", "amenity": "charging_station"}}, {"type": "Feature", "geometry": {"type": "Point", "coordinates": [-85.347508, 32.64378]}, "properties": {"addr:housenumber": "1400", "addr:street": "Columbus Parkway", "addr:city": "Opelika", "addr:state": "AL", "addr:postcode": "36804", "addr:country": "US", "network:phone": "+1-888-758-4389", "opening_hours": "24/7", "network": "ChargePoint", "network:website": "https://www.chargepoint.com", "check_date": "2025-06-29", "ref:afdc": "404625;404626;404627;404628", "start_date": "2025-06-27", "socket:type1_combo": 4, "socket:type1_combo:output": "80", "socket:chademo": 1, "socket:chademo:output": "80", "socket:nacs": 3, "socket:nacs:output": "80", "amenity": "charging_station"}}, {"type": "Feature", "geometry": {"type": "Point", "coordinates": [-80.190981, 26.455806]}, "properties": {"addr:housenumber": "14851", "addr:street": "Lyons Road", "addr:city": "Delray Beach", "addr:state": "FL", "addr:postcode": "33446", "addr:country": "US", "network:phone": "+1-888-758-4389", "opening_hours": "24/7", "network": "ChargePoint", "network:website": "https://www.chargepoint.com", "check_date": "2025-06-29", "ref:afdc": "400599;400600;400601;400603", "start_date": "2025-06-24", "socket:type1_combo": 8, "socket:type1_combo:output": "400", "amenity": "charging_station"}}, {"type": "Feature", "geometry": {"type": "Point", "coordinates": [-122.476505, 37.759725]}, "properties": {"addr:housenumber": "1500", "addr:street": "19th Avenue", "addr:city": "San Francisco", "addr:state": "CA", "addr:postcode": "94122", "addr:country": "US", "network:phone": "+1-855-900-7584", "opening_hours": "24/7", "network": "Shell Recharge", "network:website": "https://www.shell.us/motorist/electric-vehicle-charging.html", "check_date": "2025-06-29", "ref:afdc": "404728", "start_date": "2025-06-28", "socket:type1_combo": 12, "socket:type1_combo:output": "360", "amenity": "charging_station"}}, {"type": "Feature", "geometry": {"type": "Point", "coordinates": [-117.111742, 47.672733]}, "properties": {"addr:housenumber": "1750", "addr:street": "North Pepper Lane", "addr:city": "Liberty Lake", "addr:state": "WA", "addr:postcode": "99019", "addr:country": "US", "network:phone": "+1-888-998-2546", "opening_hours": "24/7", "network": "Blink", "network:website": "https://blinkcharging.com", "check_date": "2025-06-30", "ref:afdc": "404700", "start_date": "2025-06-26", "socket:type1_combo": 2, "socket:type1_combo:output": "120", "amenity": "charging_station"}}, {"type": "Feature", "geometry": {"type": "Point", "coordinates": [-118.02098, 34.033254]}, "properties": {"addr:housenumber": "1955", "addr:street": "Workman Mill Road", "addr:city": "Whittier", "addr:state": "CA", "addr:postcode": "90601", "addr:country": "US", "network:phone": "+1-833-387-2643", "opening_hours": "24/7", "network": "EVRANGE", "network:website": "https://www.evrange.com", "check_date": "2025-06-29", "ref:afdc": "404730", "start_date": "2025-06-27", "socket:type1_combo": 1, "socket:type1_combo:output": "50", "socket:chademo": 1, "socket:chademo:output": "50", "amenity": "charging_station"}}, {"type": "Feature", "geometry": {"type": "Point", "coordinates": [-87.38744, 46.543626]}, "properties": {"addr:housenumber": "200", "addr:street": "North Lakeshore Boulevard", "addr:city": "Marquette", "addr:state": "MI", "addr:postcode": "49855", "addr:country": "US", "network:phone": "+1-888-758-4389", "opening_hours": "24/7", "network": "ChargePoint", "network:website": "https://www.chargepoint.com", "check_date": "2025-06-29", "ref:afdc": "404663", "start_date": "2025-06-27", "socket:type1_combo": 1, "socket:type1_combo:output": "62", "socket:chademo": 1, "socket:chademo:output": "62", "amenity": "charging_station"}}, {"type": "Feature", "geometry": {"type": "Point", "coordinates": [-83.403529, 33.945702]}, "properties": {"addr:housenumber": "2025", "addr:street": "Baxter Street", "addr:city": "Athens", "addr:state": "GA", "addr:postcode": "30606", "addr:country": "US", "network:phone": "+1-888-758-4389", "opening_hours": "24/7", "network": "ChargePoint", "network:website": "https://www.chargepoint.com", "check_date": "2025-06-29", "ref:afdc": "404639;404642", "start_date": "2025-06-27", "socket:type1_combo": 2, "socket:type1_combo:output": "62", "socket:chademo": 2, "socket:chademo:output": "62", "amenity": "charging_station"}}, {"type": "Feature", "geometry": {"type": "Point", "coordinates": [-108.64817, 39.11254]}, "properties": {"addr:housenumber": "2195", "addr:street": "Highway 6 And 50", "addr:city": "Grand Junction", "addr:state": "CO", "addr:postcode": "81505", "addr:country": "US", "network:phone": "+1-877-455-3833", "opening_hours": "24/7", "network": "EVgo", "network:website": "https://www.evgo.com", "check_date": "2025-06-29", "ref:afdc": "404765", "start_date": "2025-06-28", "socket:type1_combo": 4, "socket:type1_combo:output": "350", "amenity": "charging_station"}}, {"type": "Feature", "geometry": {"type": "Point", "coordinates": [-81.947056, 40.795616]}, "properties": {"addr:housenumber": "220", "addr:street": "South Columbus Road", "addr:city": "Wooster", "addr:state": "OH", "addr:postcode": "44691", "addr:country": "US", "network:phone": "+1-313-262-6722", "opening_hours": "24/7", "network": "Red E", "network:website": "https://www.redecharge.com", "check_date": "2025-06-29", "ref:afdc": "400723", "start_date": "2025-06-25", "socket:type1_combo": 3, "socket:type1_combo:output": "201", "socket:chademo": 1, "socket:chademo:output": "100", "amenity": "charging_station"}}, {"type": "Feature", "geometry": {"type": "Point", "coordinates": [-88.199912, 41.563343]}, "properties": {"addr:housenumber": "2300", "addr:street": "South Route 59", "addr:city": "Plainfield", "addr:state": "IL", "addr:postcode": "60586", "addr:country": "US", "network:phone": "+1-877-455-3833", "opening_hours": "24/7", "network": "EVgo", "network:website": "https://www.evgo.com", "check_date": "2025-06-29", "ref:afdc": "404763", "start_date": "2025-06-28", "socket:type1_combo": 6, "socket:type1_combo:output": "350", "amenity": "charging_station"}}, {"type": "Feature", "geometry": {"type": "Point", "coordinates": [-105.2106, 38.44864]}, "properties": {"addr:housenumber": "2501", "addr:street": "Fremont Drive", "addr:city": "Canon City", "addr:state": "CO", "addr:postcode": "81212", "addr:country": "US", "network:phone": "+1-866-816-7584", "opening_hours": "24/7", "network": "EV Connect", "network:website": "https://www.evconnect.com", "check_date": "2025-06-29", "ref:afdc": "400673", "start_date": "2025-06-25", "socket:type1_combo": 4, "socket:type1_combo:output": "140;240", "amenity": "charging_station"}}, {"type": "Feature", "geometry": {"type": "Point", "coordinates": [-97.058026, 32.793114]}, "properties": {"addr:housenumber": "2535", "addr:street": "North Highway 360", "addr:city": "Grand Prairie", "addr:state": "TX", "addr:postcode": "75050", "addr:country": "US", "network:phone": "+1-833-466-2474", "opening_hours": "24/7", "network": "IONNA", "network:website": "https://www.ionna.com", "check_date": "2025-06-29", "ref:afdc": "400722", "start_date": "2025-06-26", "socket:type1_combo": 6, "socket:type1_combo:output": "400", "socket:nacs": 4, "socket:nacs:output": "400", "amenity": "charging_station"}}, {"type": "Feature", "geometry": {"type": "Point", "coordinates": [-105.02019, 39.729476]}, "properties": {"addr:housenumber": "2635", "addr:street": "West 8th Avenue", "addr:city": "Denver", "addr:state": "CO", "addr:postcode": "80204", "addr:country": "US", "network:phone": "+1-866-816-7584", "opening_hours": "24/7", "network": "EV Connect", "network:website": "https://www.evconnect.com", "check_date": "2025-06-29", "ref:afdc": "400669", "start_date": "2025-06-25", "socket:type1_combo": 1, "socket:type1_combo:output": "240", "socket:nacs": 1, "socket:nacs:output": "240", "amenity": "charging_station"}}, {"type": "Feature", "geometry": {"type": "Point", "coordinates": [-76.39852, 37.063168]}, "properties": {"addr:housenumber": "2712", "addr:street": "Neil Armstrong Parkway", "addr:city": "Hampton", "addr:state": "VA", "addr:postcode": "23666", "addr:country": "US", "network:phone": "+1-888-758-4389", "opening_hours": "24/7", "network": "ChargePoint", "network:website": "https://www.chargepoint.com", "check_date": "2025-06-29", "ref:afdc": "400663;400664", "start_date": "2025-06-25", "socket:type1_combo": 2, "socket:type1_combo:output": "62", "socket:chademo": 2, "socket:chademo:output": "62", "amenity": "charging_station"}}, {"type": "Feature", "geometry": {"type": "Point", "coordinates": [-83.381308, 42.681504]}, "properties": {"addr:housenumber": "2970", "addr:street": "Frembes Road", "addr:city": "Waterford Twp", "addr:state": "MI", "addr:postcode": "46329", "addr:country": "US", "network:phone": "+1-313-262-6722", "opening_hours": "24/7", "network": "Red E", "network:website": "https://www.redecharge.com", "check_date": "2025-06-29", "ref:afdc": "400249", "start_date": "2025-06-23", "socket:type1_combo": 2, "socket:type1_combo:output": "180", "amenity": "charging_station"}}, {"type": "Feature", "geometry": {"type": "Point", "coordinates": [-84.429881, 30.493933]}, "properties": {"addr:housenumber": "32670", "addr:street": "Blue Star Highway", "addr:city": "Midway", "addr:state": "FL", "addr:postcode": "32343", "addr:country": "US", "network:phone": "+1-877-455-3833", "opening_hours": "24/7", "network": "EVgo", "network:website": "https://www.evgo.com", "check_date": "2025-06-29", "ref:afdc": "404764", "start_date": "2025-06-28", "socket:type1_combo": 4, "socket:type1_combo:output": "350", "amenity": "charging_station"}}, {"type": "Feature", "geometry": {"type": "Point", "coordinates": [-93.038377, 45.041463]}, "properties": {"addr:housenumber": "3350", "addr:street": "Highway 61 North", "addr:city": "Saint Paul", "addr:state": "MN", "addr:postcode": "55110", "addr:country": "US", "network:phone": "+1-888-758-4389", "opening_hours": "24/7", "network": "ChargePoint", "network:website": "https://www.chargepoint.com", "check_date": "2025-06-29", "ref:afdc": "400658", "start_date": "2025-06-25", "socket:type1_combo": 1, "socket:type1_combo:output": "62", "socket:nacs": 1, "socket:nacs:output": "62", "amenity": "charging_station"}}, {"type": "Feature", "geometry": {"type": "Point", "coordinates": [-76.958413, 38.896407]}, "properties": {"addr:housenumber": "3375", "addr:street": "Benning Road Northeast", "addr:city": "Washington", "addr:state": "DC", "addr:postcode": "20019", "addr:country": "US", "network:phone": "+1-888-356-8911", "opening_hours": "24/7", "network": "FLO", "network:website": "https://www.flo.com", "check_date": "2025-06-29", "ref:afdc": "404678", "start_date": "2025-06-27", "socket:type1_combo": 4, "socket:type1_combo:output": "320", "amenity": "charging_station"}}, {"type": "Feature", "geometry": {"type": "Point", "coordinates": [-95.000187, 29.801261]}, "properties": {"addr:housenumber": "4080", "addr:street": "East Freeway", "addr:city": "Baytown", "addr:state": "TX", "addr:postcode": "77521", "addr:country": "US", "network:phone": "+1-888-758-4389", "opening_hours": "24/7", "network": "ChargePoint", "network:website": "https://www.chargepoint.com", "check_date": "2025-06-29", "ref:afdc": "400662;404636;404637;404638;404641;404643", "start_date": "2025-06-25;2025-06-27", "socket:type1_combo": 6, "socket:type1_combo:output": "400", "socket:nacs": 5, "socket:nacs:output": "400", "amenity": "charging_station"}}, {"type": "Feature", "geometry": {"type": "Point", "coordinates": [-117.031797, 33.739351]}, "properties": {"addr:housenumber": "425", "addr:street": "Motor Way", "addr:city": "Hemet", "addr:state": "CA", "addr:postcode": "92545", "addr:country": "US", "network:phone": "+1-888-998-2546", "opening_hours": "24/7", "network": "Blink", "network:website": "https://blinkcharging.com", "check_date": "2025-06-30", "ref:afdc": "400551", "start_date": "2025-06-23", "socket:type1_combo": 2, "socket:type1_combo:output": "180", "amenity": "charging_station"}}, {"type": "Feature", "geometry": {"type": "Point", "coordinates": [-95.279246, 32.014333]}, "properties": {"addr:housenumber": "43604", "addr:street": "U.S. 69", "addr:city": "Jacksonville", "addr:state": "TX", "addr:postcode": "75766", "addr:country": "US", "network:phone": "+1-888-998-2546", "opening_hours": "24/7", "network": "Blink", "network:website": "https://blinkcharging.com", "check_date": "2025-06-30", "ref:afdc": "404588", "start_date": "2025-06-26", "socket:type1_combo": 2, "socket:type1_combo:output": "180", "amenity": "charging_station"}}, {"type": "Feature", "geometry": {"type": "Point", "coordinates": [-71.997374, 42.562642]}, "properties": {"addr:housenumber": "442", "addr:street": "West Broadway", "addr:city": "Gardner", "addr:state": "MA", "addr:postcode": "01440", "addr:country": "US", "network:phone": "+1-888-758-4389", "opening_hours": "24/7", "network": "ChargePoint", "network:website": "https://www.chargepoint.com", "check_date": "2025-06-29", "ref:afdc": "404713;404714", "start_date": "2025-06-28", "socket:type1_combo": 4, "socket:type1_combo:output": "360;400", "amenity": "charging_station"}}, {"type": "Feature", "geometry": {"type": "Point", "coordinates": [-92.502464, 44.072008]}, "properties": {"addr:housenumber": "4748", "addr:street": "US-52", "addr:city": "Rochester", "addr:state": "MN", "addr:postcode": "55904", "addr:country": "US", "network:phone": "+1-888-758-4389", "opening_hours": "24/7", "network": "ChargePoint", "network:website": "https://www.chargepoint.com", "check_date": "2025-06-29", "ref:afdc": "404655", "start_date": "2025-06-27", "socket:type1_combo": 1, "socket:type1_combo:output": "62", "socket:chademo": 1, "socket:chademo:output": "62", "amenity": "charging_station"}}, {"type": "Feature", "geometry": {"type": "Point", "coordinates": [-92.502649, 44.072536]}, "properties": {"addr:housenumber": "4800", "addr:street": "US-52", "addr:city": "Rochester", "addr:state": "MN", "addr:postcode": "55901", "addr:country": "US", "network:phone": "+1-888-758-4389", "opening_hours": "24/7", "network": "ChargePoint", "network:website": "https://www.chargepoint.com", "check_date": "2025-06-29", "ref:afdc": "404640;404723", "start_date": "2025-06-27;2025-06-28", "socket:type1_combo": 3, "socket:type1_combo:output": "200;62", "socket:chademo": 1, "socket:chademo:output": "62", "amenity": "charging_station"}}, {"type": "Feature", "geometry": {"type": "Point", "coordinates": [-104.73623, 38.938917]}, "properties": {"addr:housenumber": "4950", "addr:street": "New Car Drive", "addr:city": "Colorado Springs", "addr:state": "CO", "addr:postcode": "80923", "addr:country": "US", "network:phone": "+1-866-816-7584", "opening_hours": "24/7", "network": "EV Connect", "network:website": "https://www.evconnect.com", "check_date": "2025-06-29", "ref:afdc": "400672", "start_date": "2025-06-25", "socket:type1_combo": 2, "socket:type1_combo:output": "180", "amenity": "charging_station"}}, {"type": "Feature", "geometry": {"type": "Point", "coordinates": [-71.108128, 41.741359]}, "properties": {"addr:housenumber": "575", "addr:street": "Currant Road", "addr:city": "Fall River", "addr:state": "MA", "addr:postcode": "02720", "addr:country": "US", "network:phone": "+1-888-758-4389", "opening_hours": "24/7", "network": "ChargePoint", "network:website": "https://www.chargepoint.com", "check_date": "2025-06-29", "ref:afdc": "400568;400569", "start_date": "2025-06-24", "socket:type1_combo": 2, "socket:type1_combo:output": "62", "socket:chademo": 2, "socket:chademo:output": "62", "amenity": "charging_station"}}, {"type": "Feature", "geometry": {"type": "Point", "coordinates": [-93.699413, 41.665059]}, "properties": {"addr:housenumber": "5750", "addr:street": "Merle Hay Road", "addr:city": "Johnston", "addr:state": "IA", "addr:postcode": "50131", "addr:country": "US", "network:phone": "+1-800-636-0986", "opening_hours": "24/7", "network": "ChargeLab", "network:website": "https://chargelab.co", "check_date": "2025-06-29", "ref:afdc": "400720", "start_date": "2025-06-26", "socket:type1_combo": 1, "socket:type1_combo:output": "351", "socket:chademo": 1, "socket:chademo:output": "200", "amenity": "charging_station"}}, {"type": "Feature", "geometry": {"type": "Point", "coordinates": [-93.169299, 45.013748]}, "properties": {"addr:housenumber": "652", "addr:street": "Rosedale Shopping Center", "addr:city": "Roseville", "addr:state": "MN", "addr:postcode": "55113", "addr:country": "US", "network:phone": "+1-888-758-4389", "opening_hours": "24/7", "network": "ChargePoint", "network:website": "https://www.chargepoint.com", "check_date": "2025-06-30", "ref:afdc": "400644", "start_date": "2025-06-25", "socket:type1_combo": 1, "socket:type1_combo:output": "62", "socket:chademo": 1, "socket:chademo:output": "62", "amenity": "charging_station"}}, {"type": "Feature", "geometry": {"type": "Point", "coordinates": [-84.99968, 41.74338]}, "properties": {"addr:housenumber": "6900", "addr:street": "Old U.S. 27", "addr:city": "Fremont", "addr:state": "IN", "addr:postcode": "46737", "addr:country": "US", "network:phone": "+1-877-455-3833", "opening_hours": "24/7", "network": "EVgo", "network:website": "https://www.evgo.com", "check_date": "2025-06-29", "ref:afdc": "400687", "start_date": "2025-06-25", "socket:type1_combo": 4, "socket:type1_combo:output": "350", "amenity": "charging_station"}}, {"type": "Feature", "geometry": {"type": "Point", "coordinates": [-93.624552, 41.521153]}, "properties": {"addr:housenumber": "7401", "addr:street": "Southwest 9th Street", "addr:city": "Des Moines", "addr:state": "IA", "addr:postcode": "50315", "addr:country": "US", "network:phone": "+1-800-636-0986", "opening_hours": "24/7", "network": "ChargeLab", "network:website": "https://chargelab.co", "check_date": "2025-06-29", "ref:afdc": "400190", "start_date": "2025-06-22", "socket:type1_combo": 2, "socket:type1_combo:output": "50", "socket:chademo": 2, "socket:chademo:output": "50", "amenity": "charging_station"}}, {"type": "Feature", "geometry": {"type": "Point", "coordinates": [-82.942287, 38.340782]}, "properties": {"addr:housenumber": "750", "addr:street": "Carol Malone Boulevard", "addr:city": "Grayson", "addr:state": "KY", "addr:postcode": "41143", "addr:country": "US", "network:phone": "+1-888-758-4389", "opening_hours": "24/7", "network": "ChargePoint", "network:website": "https://www.chargepoint.com", "check_date": "2025-06-29", "ref:afdc": "404657;404659", "start_date": "2025-06-27", "socket:type1_combo": 4, "socket:type1_combo:output": "320", "socket:nacs": 4, "socket:nacs:output": "320", "amenity": "charging_station"}}, {"type": "Feature", "geometry": {"type": "Point", "coordinates": [-110.96205, 31.43084]}, "properties": {"addr:housenumber": "769", "addr:street": "East Frontage Road", "addr:city": "Rio Rico", "addr:state": "AZ", "addr:postcode": "85648", "addr:country": "US", "network:phone": "+1-877-455-3833", "opening_hours": "24/7", "network": "EVgo", "network:website": "https://www.evgo.com", "check_date": "2025-06-29", "ref:afdc": "404579", "start_date": "2025-06-26", "socket:type1_combo": 4, "socket:type1_combo:output": "350", "amenity": "charging_station"}}, {"type": "Feature", "geometry": {"type": "Point", "coordinates": [-90.441812, 37.791584]}, "properties": {"addr:housenumber": "830", "addr:street": "Valley Creek Drive", "addr:city": "Farmington", "addr:state": "MO", "addr:postcode": "63640", "addr:country": "US", "network:phone": "+1-313-262-6722", "opening_hours": "24/7", "network": "Red E", "network:website": "https://www.redecharge.com", "check_date": "2025-06-29", "ref:afdc": "404691", "start_date": "2025-06-27", "socket:type1_combo": 2, "socket:type1_combo:output": "120", "amenity": "charging_station"}}, {"type": "Feature", "geometry": {"type": "Point", "coordinates": [-105.992086, 38.523511]}, "properties": {"addr:housenumber": "931", "addr:street": "US-50", "addr:city": "Salida", "addr:state": "CO", "addr:postcode": "81201", "addr:country": "US", "network:phone": "+1-866-816-7584", "opening_hours": "24/7", "network": "EV Connect", "network:website": "https://www.evconnect.com", "check_date": "2025-06-29", "ref:afdc": "400671", "start_date": "2025-06-25", "socket:type1_combo": 2, "socket:type1_combo:output": "140", "amenity": "charging_station"}}]}
