{"type": "FeatureCollection", "features": [{"type": "Feature", "geometry": {"type": "Point", "coordinates": [-82.601676, 35.549866]}, "properties": {"addr:housenumber": "611", "addr:street": "Brevard Road", "addr:city": "Asheville", "addr:state": "NC", "addr:postcode": "28806", "addr:country": "US", "network:phone": "+1-888-758-4389", "opening_hours": "24/7", "network": "ChargePoint", "network:website": "https://www.chargepoint.com", "check_date": "2025-07-11", "ref:afdc": "405781", "start_date": "2025-07-10", "socket:type1_combo": 1, "socket:type1_combo:output": "120", "man_made": "charge_point", "frequency": 0, "access": "yes"}}, {"type": "Feature", "geometry": {"type": "Point", "coordinates": [-82.601676, 35.549866]}, "properties": {"addr:housenumber": "611", "addr:street": "Brevard Road", "addr:city": "Asheville", "addr:state": "NC", "addr:postcode": "28806", "addr:country": "US", "network:phone": "+1-888-758-4389", "opening_hours": "24/7", "network": "ChargePoint", "network:website": "https://www.chargepoint.com", "check_date": "2025-07-11", "ref:afdc": "405781", "start_date": "2025-07-10", "socket:type1_combo": 1, "socket:type1_combo:output": "120", "man_made": "charge_point", "frequency": 0, "access": "yes"}}, {"type": "Feature", "geometry": {"type": "Point", "coordinates": [-82.601785, 35.549863]}, "properties": {"addr:housenumber": "611", "addr:street": "Brevard Road", "addr:city": "Asheville", "addr:state": "NC", "addr:postcode": "28806", "addr:country": "US", "network:phone": "+1-888-758-4389", "opening_hours": "24/7", "network": "ChargePoint", "network:website": "https://www.chargepoint.com", "check_date": "2025-07-11", "ref:afdc": "405783", "start_date": "2025-07-10", "socket:type1_combo": 1, "socket:type1_combo:output": "120", "man_made": "charge_point", "frequency": 0, "access": "yes"}}, {"type": "Feature", "geometry": {"type": "Point", "coordinates": [-82.601785, 35.549863]}, "properties": {"addr:housenumber": "611", "addr:street": "Brevard Road", "addr:city": "Asheville", "addr:state": "NC", "addr:postcode": "28806", "addr:country": "US", "network:phone": "+1-888-758-4389", "opening_hours": "24/7", "network": "ChargePoint", "network:website": "https://www.chargepoint.com", "check_date": "2025-07-11", "ref:afdc": "405783", "start_date": "2025-07-10", "socket:type1_combo": 1, "socket:type1_combo:output": "120", "man_made": "charge_point", "frequency": 0, "access": "yes"}}, {"type": "Feature", "geometry": {"type": "Point", "coordinates": [-75.53479, 39.187]}, "properties": {"addr:housenumber": "1001", "addr:street": "North Dupont Highway", "addr:city": "Dover", "addr:state": "DE", "addr:postcode": "19901", "addr:country": "US", "network:phone": "+1-833-632-2778", "opening_hours": "24/7", "network": "Electrify America", "network:website": "https://www.electrifyamerica.com", "check_date": "2025-07-11", "ref:afdc": "405671", "start_date": "2025-07-08", "socket:type1_combo": 6, "socket:type1_combo:output": "350", "amenity": "charging_station"}}, {"type": "Feature", "geometry": {"type": "Point", "coordinates": [-95.618482, 31.776]}, "properties": {"addr:housenumber": "1216", "addr:street": "East Palestine Avenue", "addr:city": "Palestine", "addr:state": "TX", "addr:postcode": "75801", "addr:country": "US", "network:phone": "+1-866-816-7584", "opening_hours": "24/7", "network": "EV Connect", "network:website": "https://www.evconnect.com", "check_date": "2025-07-11", "ref:afdc": "405725", "start_date": "2025-07-09", "socket:type1_combo": 1, "socket:type1_combo:output": "50", "amenity": "charging_station"}}, {"type": "Feature", "geometry": {"type": "Point", "coordinates": [-91.538828, 40.12362]}, "properties": {"addr:housenumber": "1700", "addr:street": "Oak Street", "addr:city": "Canton", "addr:state": "MO", "addr:postcode": "63435", "addr:country": "US", "network:phone": "+1-888-222-6618", "opening_hours": "24/7", "network": "NOODOE", "network:website": "https://www.noodoe.com", "check_date": "2025-07-11", "ref:afdc": "405531", "start_date": "2025-07-07", "socket:type1_combo": 1, "socket:type1_combo:output": "75", "socket:nacs": 1, "socket:nacs:output": "75", "amenity": "charging_station"}}, {"type": "Feature", "geometry": {"type": "Point", "coordinates": [-71.197697, 42.510476]}, "properties": {"addr:housenumber": "180", "addr:street": "A Cambridge Street", "addr:city": "Burlington", "addr:state": "MA", "addr:postcode": "01803", "addr:country": "US", "network:phone": "+1-877-455-3833", "opening_hours": "24/7", "network": "EVgo", "network:website": "https://www.evgo.com", "check_date": "2025-07-12", "ref:afdc": "416069", "start_date": "2025-07-12", "socket:type1_combo": 6, "socket:type1_combo:output": "100;350", "amenity": "charging_station"}}, {"type": "Feature", "geometry": {"type": "Point", "coordinates": [-82.96557, 40.1498]}, "properties": {"addr:housenumber": "1900", "addr:street": "Ikea Way", "addr:city": "Columbus", "addr:state": "OH", "addr:postcode": "43240", "addr:country": "US", "network:phone": "+1-833-632-2778", "opening_hours": "24/7", "network": "Electrify America", "network:website": "https://www.electrifyamerica.com", "check_date": "2025-07-11", "ref:afdc": "405897", "start_date": "2025-07-11", "socket:type1_combo": 6, "socket:type1_combo:output": "350", "amenity": "charging_station"}}, {"type": "Feature", "geometry": {"type": "Point", "coordinates": [-78.92472, 33.70469]}, "properties": {"addr:housenumber": "2000", "addr:street": "Coastal Grand Cir", "addr:city": "Myrtle Beach", "addr:state": "SC", "addr:postcode": "29577", "addr:country": "US", "network:phone": "+1-833-632-2778", "opening_hours": "24/7", "network": "Electrify America", "network:website": "https://www.electrifyamerica.com", "check_date": "2025-07-11", "ref:afdc": "405672", "start_date": "2025-07-08", "socket:type1_combo": 6, "socket:type1_combo:output": "350", "amenity": "charging_station"}}, {"type": "Feature", "geometry": {"type": "Point", "coordinates": [-83.7682, 42.2436]}, "properties": {"addr:housenumber": "2000", "addr:street": "Waters Road", "addr:city": "Ann Arbor", "addr:state": "MI", "addr:postcode": "48103", "addr:country": "US", "network:phone": "+1-833-632-2778", "opening_hours": "24/7", "network": "Electrify America", "network:website": "https://www.electrifyamerica.com", "check_date": "2025-07-11", "ref:afdc": "405811", "start_date": "2025-07-10", "socket:type1_combo": 8, "socket:type1_combo:output": "350", "amenity": "charging_station"}}, {"type": "Feature", "geometry": {"type": "Point", "coordinates": [-94.925933, 41.705175]}, "properties": {"addr:housenumber": "2079", "addr:street": "Highway 71", "addr:city": "Audubon", "addr:state": "IA", "addr:postcode": "50025", "addr:country": "US", "network:phone": "+1-800-636-0986", "opening_hours": "24/7", "network": "ChargeLab", "network:website": "https://chargelab.co", "check_date": "2025-07-11", "ref:afdc": "406099", "start_date": "2025-07-11", "socket:type1_combo": 2, "socket:type1_combo:output": "351", "socket:chademo": 2, "socket:chademo:output": "200", "amenity": "charging_station"}}, {"type": "Feature", "geometry": {"type": "Point", "coordinates": [-88.328377, 42.032716]}, "properties": {"addr:housenumber": "2090", "addr:street": "Larkin Avenue", "addr:city": "Elgin", "addr:state": "IL", "addr:postcode": "60123", "addr:country": "US", "network:phone": "+1-888-222-6618", "opening_hours": "24/7", "network": "NOODOE", "network:website": "https://www.noodoe.com", "check_date": "2025-07-11", "ref:afdc": "406094", "start_date": "2025-07-11", "socket:type1_combo": 4, "socket:type1_combo:output": "240", "amenity": "charging_station"}}, {"type": "Feature", "geometry": {"type": "Point", "coordinates": [-84.379432, 42.27764]}, "properties": {"addr:housenumber": "2200", "addr:street": "Seymour Road", "addr:city": "Jackson", "addr:state": "MI", "addr:postcode": "49201", "addr:country": "US", "network:phone": "+1-888-758-4389", "opening_hours": "24/7", "network": "ChargePoint", "network:website": "https://www.chargepoint.com", "check_date": "2025-07-11", "ref:afdc": "405797", "start_date": "2025-07-10", "socket:type1_combo": 2, "socket:type1_combo:output": "75", "amenity": "charging_station"}}, {"type": "Feature", "geometry": {"type": "Point", "coordinates": [-122.71737, 38.46324]}, "properties": {"addr:housenumber": "2300", "addr:street": "Mendocino Avenue", "addr:city": "Santa Rosa", "addr:state": "CA", "addr:postcode": "95403", "addr:country": "US", "network:phone": "+1-877-455-3833", "opening_hours": "24/7", "network": "EVgo", "network:website": "https://www.evgo.com", "check_date": "2025-07-12", "ref:afdc": "416070", "start_date": "2025-07-12", "socket:type1_combo": 4, "socket:type1_combo:output": "350", "amenity": "charging_station"}}, {"type": "Feature", "geometry": {"type": "Point", "coordinates": [-93.084659, 34.119728]}, "properties": {"addr:housenumber": "2813", "addr:street": "Pine Street", "addr:city": "Arkadelphia", "addr:state": "AR", "addr:postcode": "71923", "addr:country": "US", "network:phone": "+1-866-816-7584", "opening_hours": "24/7", "network": "EV Connect", "network:website": "https://www.evconnect.com", "check_date": "2025-07-11", "ref:afdc": "405724", "start_date": "2025-07-09", "socket:type1_combo": 2, "socket:type1_combo:output": "350", "amenity": "charging_station"}}, {"type": "Feature", "geometry": {"type": "Point", "coordinates": [-74.498602, 40.372358]}, "properties": {"addr:housenumber": "319", "addr:street": "Ridge Road", "addr:city": "Dayton", "addr:state": "NJ", "addr:postcode": "08810", "addr:country": "US", "network:phone": "+1-949-945-2000", "opening_hours": "24/7", "network": "EVGATEWAY", "network:website": "https://evgateway.com", "check_date": "2025-07-11", "ref:afdc": "406096", "start_date": "2025-07-11", "socket:type1_combo": 4, "socket:type1_combo:output": "30", "amenity": "charging_station"}}, {"type": "Feature", "geometry": {"type": "Point", "coordinates": [-122.125179, 38.231135]}, "properties": {"addr:housenumber": "324", "addr:street": "Campus Lane", "addr:city": "Fairfield", "addr:state": "CA", "addr:postcode": "94534", "addr:country": "US", "network:phone": "+1-800-636-0986", "opening_hours": "24/7", "network": "ChargeLab", "network:website": "https://chargelab.co", "check_date": "2025-07-11", "ref:afdc": "406098", "start_date": "2025-07-11", "socket:type1_combo": 2, "socket:type1_combo:output": "180", "socket:nacs": 2, "socket:nacs:output": "180", "amenity": "charging_station"}}, {"type": "Feature", "geometry": {"type": "Point", "coordinates": [-97.704362, 31.084313]}, "properties": {"addr:housenumber": "3403", "addr:street": "East Central Texas Expressway", "addr:city": "Killeen", "addr:state": "TX", "addr:postcode": "76543", "addr:country": "US", "network:phone": "+1-888-758-4389", "opening_hours": "24/7", "network": "ChargePoint", "network:website": "https://www.chargepoint.com", "check_date": "2025-07-11", "ref:afdc": "405640", "start_date": "2025-07-08", "socket:type1_combo": 1, "socket:type1_combo:output": "62", "socket:chademo": 1, "socket:chademo:output": "62", "amenity": "charging_station"}}, {"type": "Feature", "geometry": {"type": "Point", "coordinates": [-105.085201, 39.708398]}, "properties": {"addr:housenumber": "470", "addr:street": "South Allison Parkway", "addr:city": "Lakewood", "addr:state": "CO", "addr:postcode": "80226", "addr:country": "US", "network:phone": "+1-866-816-7584", "opening_hours": "24/7", "network": "EV Connect", "network:website": "https://www.evconnect.com", "check_date": "2025-07-11", "ref:afdc": "405726", "start_date": "2025-07-09", "socket:type1_combo": 2, "socket:type1_combo:output": "180", "socket:chademo": 2, "socket:chademo:output": "100", "amenity": "charging_station"}}, {"type": "Feature", "geometry": {"type": "Point", "coordinates": [-70.97847, 42.236439]}, "properties": {"addr:housenumber": "575", "addr:street": "Quincy Avenue", "addr:city": "Braintree", "addr:state": "MA", "addr:postcode": "02184", "addr:country": "US", "network:phone": "+1-888-758-4389", "opening_hours": "24/7", "network": "ChargePoint", "network:website": "https://www.chargepoint.com", "check_date": "2025-07-11", "ref:afdc": "405881", "start_date": "2025-07-11", "socket:type1_combo": 2, "socket:type1_combo:output": "80", "amenity": "charging_station"}}, {"type": "Feature", "geometry": {"type": "Point", "coordinates": [-70.978796, 42.23624]}, "properties": {"addr:housenumber": "575", "addr:street": "Quincy Avenue", "addr:city": "Quincy", "addr:state": "MA", "addr:postcode": "02169", "addr:country": "US", "network:phone": "+1-888-758-4389", "opening_hours": "24/7", "network": "ChargePoint", "network:website": "https://www.chargepoint.com", "check_date": "2025-07-11", "ref:afdc": "405798", "start_date": "2025-07-10", "socket:type1_combo": 1, "socket:type1_combo:output": "62", "socket:chademo": 1, "socket:chademo:output": "62", "amenity": "charging_station"}}, {"type": "Feature", "geometry": {"type": "Point", "coordinates": [-83.40258, 42.65985]}, "properties": {"addr:housenumber": "5825", "addr:street": "Highland rd", "addr:city": "Waterford", "addr:state": "MI", "addr:postcode": "48327", "addr:country": "US", "network:phone": "+1-313-262-6722", "opening_hours": "24/7", "network": "Red E", "network:website": "https://www.redecharge.com", "check_date": "2025-07-11", "ref:afdc": "405744", "start_date": "2025-07-08", "socket:type1_combo": 2, "socket:type1_combo:output": "161", "amenity": "charging_station"}}, {"type": "Feature", "geometry": {"type": "Point", "coordinates": [-87.934474, 43.126012]}, "properties": {"addr:housenumber": "5990", "addr:street": "North Green Bay Avenue", "addr:city": "Glendale", "addr:state": "WI", "addr:postcode": "53209", "addr:country": "US", "network:phone": "+1-844-226-3873", "opening_hours": "24/7", "network": "ABM", "network:website": "https://info.abm.com/SimplifyEV", "check_date": "2025-07-11", "ref:afdc": "405524", "start_date": "2025-07-06", "socket:type1_combo": 2, "socket:type1_combo:output": "24", "amenity": "charging_station"}}, {"type": "Feature", "geometry": {"type": "Point", "coordinates": [-82.60173, 35.549864]}, "properties": {"addr:housenumber": "611", "addr:street": "Brevard Road", "addr:city": "Asheville", "addr:state": "NC", "addr:postcode": "28806", "addr:country": "US", "network:phone": "+1-888-758-4389", "opening_hours": "24/7", "network": "ChargePoint", "network:website": "https://www.chargepoint.com", "check_date": "2025-07-11", "ref:afdc": "405781;405783", "start_date": "2025-07-10", "socket:type1_combo": 4, "socket:type1_combo:output": "120", "amenity": "charging_station"}}, {"type": "Feature", "geometry": {"type": "Point", "coordinates": [-93.201369, 42.734083]}, "properties": {"addr:housenumber": "808", "addr:street": "4th Street Southeast", "addr:city": "Hampton", "addr:state": "IA", "addr:postcode": "50441", "addr:country": "US", "network:phone": "+1-800-636-0986", "opening_hours": "24/7", "network": "ChargeLab", "network:website": "https://chargelab.co", "check_date": "2025-07-11", "ref:afdc": "406102", "start_date": "2025-07-11", "socket:type1_combo": 2, "socket:type1_combo:output": "351", "socket:chademo": 2, "socket:chademo:output": "200", "amenity": "charging_station"}}, {"type": "Feature", "geometry": {"type": "Point", "coordinates": [-80.04525, 32.95669]}, "properties": {"addr:housenumber": "8199", "addr:street": "Rivers Avenue", "addr:city": "North Charleston", "addr:state": "SC", "addr:postcode": "29406", "addr:country": "US", "network:phone": "+1-888-493-3638", "opening_hours": "24/7", "network": "ZEFNET", "network:website": "https://www.zefenergy.com", "check_date": "2025-07-11", "ref:afdc": "405532", "start_date": "2025-07-07", "socket:type1_combo": 2, "amenity": "charging_station"}}, {"type": "Feature", "geometry": {"type": "Point", "coordinates": [-88.179203, 40.307036]}, "properties": {"addr:housenumber": "862", "addr:street": "Broadmeadow Road", "addr:city": "Rantoul", "addr:state": "IL", "addr:postcode": "61866", "addr:country": "US", "network:phone": "+1-888-758-4389", "opening_hours": "24/7", "network": "ChargePoint", "network:website": "https://www.chargepoint.com", "check_date": "2025-07-11", "ref:afdc": "405799", "start_date": "2025-07-10", "socket:type1_combo": 2, "socket:type1_combo:output": "200", "amenity": "charging_station"}}]}